{"type": "FeatureCollection", "features": [ {"type": "Feature", "properties": {"norad_id": 49810, "name": "GSAT0224 (GALILEO 28)", "group": "gnss", "lat": -53.64401354264911, "lon": -132.2163243163441, "alt_km": 23216.178539145796, "timestamp": "2025-12-13T20:38:51.247342+00:00", "meta": {"OBJECT_NAME": "GSAT0224 (GALILEO 28)", "OBJECT_ID": "2021-116B", "EPOCH": "2025-12-10T19:26:19.690368", "MEAN_MOTION": 1.70475895, "ECCENTRICITY": 0.000393, "INCLINATION": 57.2205, "RA_OF_ASC_NODE": 346.7629, "ARG_OF_PERICENTER": 256.2791, "MEAN_ANOMALY": 284.9883, "EPHEMERIS_TYPE": 0, "CLASSIFICATION_TYPE": "U", "NORAD_CAT_ID": 49810, "ELEMENT_SET_NO": 999, "REV_AT_EPOCH": 2499, "BSTAR": 0, "MEAN_MOTION_DOT": -8.7e-07, "MEAN_MOTION_DDOT": 0}, "tle": {"line1": "1 49810U 21116B   25344.80995012 -.00000087  00000+0  00000+0 0  9999", "line2": "2 49810  57.2205 346.7629 0003930 256.2791 284.9883  1.70475895 24991"}}, "geometry": {"type": "Point", "coordinates": [-132.2163243163441, -53.64401354264911]}}, {"type": "Feature", "properties": {"norad_id": 52984, "name": "COSMOS 2557 (706K)", "group": "gnss", "lat": 63.71523478759559, "lon": 36.96128927291083, "alt_km": 19157.142650981732, "timestamp": "2025-12-13T20:38:51.247353+00:00", "meta": {"OBJECT_NAME": "COSMOS 2557 (706K)", "OBJECT_ID": "2022-075A", "EPOCH": "2025-12-07T04:21:00.419904", "MEAN_MOTION": 2.13101754, "ECCENTRICITY": 0.00137049, "INCLINATION": 64.4129, "RA_OF_ASC_NODE": 321.247, "ARG_OF_PERICENTER": 276.9, "MEAN_ANOMALY": 82.939, "EPHEMERIS_TYPE": 0, "CLASSIFICATION_TYPE": "U", "NORAD_CAT_ID": 52984, "ELEMENT_SET_NO": 999, "REV_AT_EPOCH": 2662, "BSTAR": 0, "MEAN_MOTION_DOT": -5.2e-07, "MEAN_MOTION_DDOT": 0}, "tle": {"line1": "1 52984U 22075A   25341.18125486 -.00000052  00000+0  00000+0 0  9990", "line2": "2 52984  64.4129 321.2470 0013704 276.9000  82.9390  2.13101754 26625"}}, "geometry": {"type": "Point", "coordinates": [36.96128927291083, 63.71523478759559]}}, {"type": "Feature", "properties": {"norad_id": 54031, "name": "COSMOS 2559 (707K)", "group": "gnss", "lat": -37.72645907048512, "lon": 162.87693542445365, "alt_km": 19108.799786617237, "timestamp": "2025-12-13T20:38:51.247366+00:00", "meta": {"OBJECT_NAME": "COSMOS 2559 (707K)", "OBJECT_ID": "2022-130A", "EPOCH": "2025-12-13T02:25:11.955648", "MEAN_MOTION": 2.13101359, "ECCENTRICITY": 0.00117976, "INCLINATION": 64.3821, "RA_OF_ASC_NODE": 321.1284, "ARG_OF_PERICENTER": 192.3956, "MEAN_ANOMALY": 167.5755, "EPHEMERIS_TYPE": 0, "CLASSIFICATION_TYPE": "U", "NORAD_CAT_ID": 54031, "ELEMENT_SET_NO": 999, "REV_AT_EPOCH": 2472, "BSTAR": 0, "MEAN_MOTION_DOT": -6.2e-07, "MEAN_MOTION_DDOT": 0}, "tle": {"line1": "1 54031U 22130A   25347.10083282 -.00000062  00000+0  00000+0 0  9993", "line2": "2 54031  64.3821 321.1284 0011797 192.3956 167.5755  2.13101359 24726"}}, "geometry": {"type": "Point", "coordinates": [162.87693542445365, -37.72645907048512]}}, {"type": "Feature", "properties": {"norad_id": 54377, "name": "COSMOS 2564 (761)", "group": "gnss", "lat": -16.0519240987056, "lon": -168.9434373399635, "alt_km": 19148.606153524037, "timestamp": "2025-12-13T20:38:51.247405+00:00", "meta": {"OBJECT_NAME": "COSMOS 2564 (761)", "OBJECT_ID": "2022-161A", "EPOCH": "2025-12-12T22:40:51.156192", "MEAN_MOTION": 2.13102087, "ECCENTRICITY": 0.00086012, "INCLINATION": 64.7382, "RA_OF_ASC_NODE": 198.8921, "ARG_OF_PERICENTER": 204.7149, "MEAN_ANOMALY": 155.3163, "EPHEMERIS_TYPE": 0, "CLASSIFICATION_TYPE": "U", "NORAD_CAT_ID": 54377, "ELEMENT_SET_NO": 999, "REV_AT_EPOCH": 2366, "BSTAR": 0, "MEAN_MOTION_DOT": 7.5e-07, "MEAN_MOTION_DDOT": 0}, "tle": {"line1": "1 54377U 22161A   25346.94503653  .00000075  00000+0  00000+0 0  9993", "line2": "2 54377  64.7382 198.8921 0008601 204.7149 155.3163  2.13102087 23663"}}, "geometry": {"type": "Point", "coordinates": [-168.9434373399635, -16.0519240987056]}}, {"type": "Feature", "properties": {"norad_id": 55268, "name": "GPS BIII-6  (PRN 28)", "group": "gnss", "lat": -55.01678793019289, "lon": 69.70743193563587, "alt_km": 20187.88846730436, "timestamp": "2025-12-13T20:38:51.247427+00:00", "meta": {"OBJECT_NAME": "GPS BIII-6  (PRN 28)", "OBJECT_ID": "2023-009A", "EPOCH": "2025-12-12T05:45:10.561248", "MEAN_MOTION": 2.00555751, "ECCENTRICITY": 0.00036962, "INCLINATION": 55.1051, "RA_OF_ASC_NODE": 155.8647, "ARG_OF_PERICENTER": 357.1101, "MEAN_ANOMALY": 185.0409, "EPHEMERIS_TYPE": 0, "CLASSIFICATION_TYPE": "U", "NORAD_CAT_ID": 55268, "ELEMENT_SET_NO": 999, "REV_AT_EPOCH": 2149, "BSTAR": 0, "MEAN_MOTION_DOT": 9.5e-07, "MEAN_MOTION_DDOT": 0}, "tle": {"line1": "1 55268U 23009A   25346.23970557  .00000095  00000+0  00000+0 0  9990", "line2": "2 55268  55.1051 155.8647 0003696 357.1101 185.0409  2.00555751 21496"}}, "geometry": {"type": "Point", "coordinates": [69.70743193563587, -55.01678793019289]}}, {"type": "Feature", "properties": {"norad_id": 56564, "name": "BEIDOU-3 G4 (C62)", "group": "gnss", "lat": -0.7786983738583987, "lon": -167.43709770258718, "alt_km": 35774.77830703157, "timestamp": "2025-12-13T20:38:51.247445+00:00", "meta": {"OBJECT_NAME": "BEIDOU-3 G4 (C62)", "OBJECT_ID": "2023-066A", "EPOCH": "2025-12-13T05:41:14.698752", "MEAN_MOTION": 1.00271659, "ECCENTRICITY": 0.00028791, "INCLINATION": 0.8135, "RA_OF_ASC_NODE": 302.1043, "ARG_OF_PERICENTER": 231.674, "MEAN_ANOMALY": 153.7697, "EPHEMERIS_TYPE": 0, "CLASSIFICATION_TYPE": "U", "NORAD_CAT_ID": 56564, "ELEMENT_SET_NO": 999, "REV_AT_EPOCH": 953, "BSTAR": 0, "MEAN_MOTION_DOT": -9.7e-07, "MEAN_MOTION_DDOT": 0}, "tle": {"line1": "1 56564U 23066A   25347.23697568 -.00000097  00000+0  00000+0 0  9995", "line2": "2 56564   0.8135 302.1043 0002879 231.6740 153.7697  1.00271659  9533"}}, "geometry": {"type": "Point", "coordinates": [-167.43709770258718, -0.7786983738583987]}}, {"type": "Feature", "properties": {"norad_id": 56759, "name": "NVS-01 (IRNSS-1J)", "group": "gnss", "lat": -2.6204110354125096, "lon": 161.84995263639465, "alt_km": 35794.22138952515, "timestamp": "2025-12-13T20:38:51.247459+00:00", "meta": {"OBJECT_NAME": "NVS-01 (IRNSS-1J)", "OBJECT_ID": "2023-076A", "EPOCH": "2025-12-13T05:30:09.949248", "MEAN_MOTION": 1.00277306, "ECCENTRICITY": 0.00089675, "INCLINATION": 2.6167, "RA_OF_ASC_NODE": 251.5767, "ARG_OF_PERICENTER": 14.4996, "MEAN_ANOMALY": 28.0801, "EPHEMERIS_TYPE": 0, "CLASSIFICATION_TYPE": "U", "NORAD_CAT_ID": 56759, "ELEMENT_SET_NO": 999, "REV_AT_EPOCH": 925, "BSTAR": 0, "MEAN_MOTION_DOT": -3.2e-06, "MEAN_MOTION_DDOT": 0}, "tle": {"line1": "1 56759U 23076A   25347.22928182 -.00000320  00000+0  00000+0 0  9999", "line2": "2 56759   2.6167 251.5767 0008967  14.4996  28.0801  1.00277306  9253"}}, "geometry": {"type": "Point", "coordinates": [161.84995263639465, -2.6204110354125096]}}, {"type": "Feature", "properties": {"norad_id": 57517, "name": "COSMOS 2569 (703K)", "group": "gnss", "lat": -25.324582025725054, "lon": 66.25748658554909, "alt_km": 19114.4025410013, "timestamp": "2025-12-13T20:38:51.247472+00:00", "meta": {"OBJECT_NAME": "COSMOS 2569 (703K)", "OBJECT_ID": "2023-114A", "EPOCH": "2025-12-11T01:57:11.687328", "MEAN_MOTION": 2.13103934, "ECCENTRICITY": 0.0010485, "INCLINATION": 65.1933, "RA_OF_ASC_NODE": 78.9695, "ARG_OF_PERICENTER": 287.0346, "MEAN_ANOMALY": 72.8683, "EPHEMERIS_TYPE": 0, "CLASSIFICATION_TYPE": "U", "NORAD_CAT_ID": 57517, "ELEMENT_SET_NO": 999, "REV_AT_EPOCH": 1825, "BSTAR": 0, "MEAN_MOTION_DOT": -2.7e-07, "MEAN_MOTION_DDOT": 0}, "tle": {"line1": "1 57517U 23114A   25345.08138527 -.00000027  00000+0  00000+0 0  9997", "line2": "2 57517  65.1933  78.9695 0010485 287.0346  72.8683  2.13103934 18252"}}, "geometry": {"type": "Point", "coordinates": [66.25748658554909, -25.324582025725054]}}, {"type": "Feature", "properties": {"norad_id": 58654, "name": "BEIDOU-3 M28 (C50)", "group": "gnss", "lat": -41.58755600091102, "lon": -74.01750542139324, "alt_km": 21527.766642272607, "timestamp": "2025-12-13T20:38:51.247484+00:00", "meta": {"OBJECT_NAME": "BEIDOU-3 M28 (C50)", "OBJECT_ID": "2023-207A", "EPOCH": "2025-12-11T21:37:33.991968", "MEAN_MOTION": 1.86229651, "ECCENTRICITY": 0.00023562, "INCLINATION": 55.5838, "RA_OF_ASC_NODE": 68.6297, "ARG_OF_PERICENTER": 269.3243, "MEAN_ANOMALY": 90.6691, "EPHEMERIS_TYPE": 0, "CLASSIFICATION_TYPE": "U", "NORAD_CAT_ID": 58654, "ELEMENT_SET_NO": 999, "REV_AT_EPOCH": 1335, "BSTAR": 0, "MEAN_MOTION_DOT": -6.9e-07, "MEAN_MOTION_DDOT": 0}, "tle": {"line1": "1 58654U 23207A   25345.90108787 -.00000069  00000+0  00000+0 0  9995", "line2": "2 58654  55.5838  68.6297 0002356 269.3243  90.6691  1.86229651 13350"}}, "geometry": {"type": "Point", "coordinates": [-74.01750542139324, -41.58755600091102]}}, {"type": "Feature", "properties": {"norad_id": 58655, "name": "BEIDOU-3 M26 (C48)", "group": "gnss", "lat": 7.607384820732985, "lon": 73.80224989446481, "alt_km": 21531.5970608525, "timestamp": "2025-12-13T20:38:51.247497+00:00", "meta": {"OBJECT_NAME": "BEIDOU-3 M26 (C48)", "OBJECT_ID": "2023-207B", "EPOCH": "2025-12-11T03:52:58.066752", "MEAN_MOTION": 1.86231203, "ECCENTRICITY": 0.000378, "INCLINATION": 55.5852, "RA_OF_ASC_NODE": 68.6411, "ARG_OF_PERICENTER": 255.3563, "MEAN_ANOMALY": 104.6232, "EPHEMERIS_TYPE": 0, "CLASSIFICATION_TYPE": "U", "NORAD_CAT_ID": 58655, "ELEMENT_SET_NO": 999, "REV_AT_EPOCH": 1332, "BSTAR": 0, "MEAN_MOTION_DOT": -6.3e-07, "MEAN_MOTION_DDOT": 0}, "tle": {"line1": "1 58655U 23207B   25345.16178318 -.00000063  00000+0  00000+0 0  9995", "line2": "2 58655  55.5852  68.6411 0003780 255.3563 104.6232  1.86231203 13327"}}, "geometry": {"type": "Point", "coordinates": [73.80224989446481, 7.607384820732985]}}]}